OBJECT_NAME,OBJECT_ID,EPOCH,MEAN_MOTION,ECCENTRICITY,INCLINATION,RA_OF_ASC_NODE,ARG_OF_PERICENTER,MEAN_ANOMALY,EPHEMERIS_TYPE,CLASSIFICATION_TYPE,NORAD_CAT_ID,ELEMENT_SET_NO,REV_AT_EPOCH,BSTAR,MEAN_MOTION_DOT,MEAN_MOTION_DDOT
STARLINK-31432,2024-106L,2026-07-23T07:34:22.611936,15.27537785,.00020659,42.9986,286.6969,294.4500,65.6136,0,U,59932,999,12125,-.10080842E-2,-.27864E-3,0
STARLINK-31853,2024-106M,2026-07-23T05:49:07.233312,15.27574668,.00014538,43.0005,287.0123,275.6702,84.3984,0,U,59933,999,12125,-.16244655E-4,-.709E-5,0
STARLINK-31971,2024-106N,2026-07-23T06:32:20.848128,15.27564946,.00011398,43.0005,283.6281,284.5765,75.4960,0,U,59934,999,12117,-.5506894E-4,-.1776E-4,0
STARLINK-31962,2024-106Q,2026-07-23T06:20:34.791648,15.27567142,.0001252,43.0015,287.1716,280.2463,79.8247,0,U,59936,999,12125,-.42474788E-4,-.143E-4,0
STARLINK-31879,2024-106R,2026-07-23T06:35:23.016480,15.27566915,.00010902,43.0013,287.2489,278.6236,81.4493,0,U,59937,999,12130,-.42615272E-4,-.1434E-4,0
STARLINK-31876,2024-106S,2026-07-22T13:56:25.802880,15.27600272,.00020867,43.0012,290.6473,275.3859,84.6754,0,U,59938,999,12116,-.630827E-5,-.436E-5,0
STARLINK-31955,2024-106T,2026-07-23T05:08:24.605952,15.27575525,.00008121,43.0004,286.7902,285.1463,74.9299,0,U,59939,999,12129,-.22873511E-4,-.891E-5,0
STARLINK-31946,2024-106U,2026-07-23T06:29:49.553088,15.27574979,.00008449,42.9999,287.2180,269.3884,90.6871,0,U,59940,999,11188,-.34833644E-4,-.122E-4,0
STARLINK-31948,2024-106V,2026-07-23T06:21:15.079968,15.27569897,.00009754,43.0019,283.6120,270.3419,89.7320,0,U,59941,999,12129,-.31313108E-4,-.1123E-4,0
STARLINK-31900,2024-106W,2026-07-23T05:12:06.343776,15.27675084,.00016324,43.0014,286.8160,244.3735,115.6948,0,U,59942,999,12125,-.74927131E-3,-.20883E-3,0
STARLINK-31973,2024-106X,2026-07-22T22:18:42.147072,15.27563075,.00013596,43.0014,288.9664,270.5688,89.5008,0,U,59943,999,12120,-.93349957E-4,-.2829E-4,0
STARLINK-31966,2024-106Y,2026-07-23T06:03:54.721152,15.27576277,.00008754,42.9956,287.0839,269.2807,90.7944,0,U,59944,999,12130,.39632297E-4,.829E-5,0
STARLINK-11145 [DTC],2024-107A,2026-07-22T23:58:55.357248,15.69704293,.00004285,53.1622,304.5478,5.2146,354.8876,0,U,59945,999,12339,-.3490509E-5,-.101E-4,0
STARLINK-11113 [DTC],2024-107C,2026-07-23T00:05:50.556768,15.69702335,.00009979,53.1593,303.8328,79.0432,281.0699,0,U,59947,999,12340,-.2419107E-5,-.881E-5,0
STARLINK-11123 [DTC],2024-107D,2026-07-23T07:23:12.388992,15.69716517,.00009631,53.1610,302.9138,93.0536,267.0592,0,U,59948,999,12350,.571948E-5,.105E-5,0
STARLINK-11138 [DTC],2024-107E,2026-07-23T06:54:57.833568,15.69694220,.00010688,53.1598,302.7791,66.5342,293.5788,0,U,59949,999,12350,.6318471E-5,.177E-5,0
STARLINK-11130 [DTC],2024-107F,2026-07-22T23:37:45.296256,15.69695787,.00036949,53.1551,304.4470,75.3142,284.8285,0,U,59950,999,12339,-.9311066E-5,-.172E-4,0
STARLINK-11124 [DTC],2024-107H,2026-07-23T07:02:01.447584,15.69705028,.00006519,53.1595,302.8137,82.0226,278.0866,0,U,59952,999,12351,-.92483E-6,-.7E-5,0
STARLINK-11133 [DTC],2024-107K,2026-07-23T06:40:50.187360,15.69702066,.00011905,53.1574,302.7161,74.4768,285.6381,0,U,59954,999,12344,-.5883414E-5,-.1301E-4,0
STARLINK-11144 [DTC],2024-107L,2026-07-22T15:16:56.327520,15.69693760,.00010092,53.1584,305.8279,83.6890,276.4243,0,U,59955,999,12340,-.15966616E-4,-.2521E-4,0
STARLINK-11134 [DTC],2024-107M,2026-07-23T06:26:42.228384,15.69698172,.00001252,53.1609,302.6496,81.6365,278.4668,0,U,59956,999,12337,.5819619E-5,.118E-5,0
STARLINK-11142 [DTC],2024-107N,2026-07-23T00:12:53.901216,15.69704777,.00003812,53.1600,303.8753,5.6009,354.5013,0,U,59957,999,12341,-.665641E-5,-.1393E-4,0
STARLINK-31995,2024-107P,2026-07-23T06:50:29.056128,15.34393742,.00013903,53.1604,154.5047,108.5068,251.6086,0,U,59958,999,11937,.17804876E-4,.225E-5,0
STARLINK-31989,2024-107Q,2026-07-23T06:17:09.626208,15.34399869,.00014454,53.1593,154.3634,85.4000,274.7168,0,U,59959,999,12057,.1083486E-5,-.34E-5,0
STARLINK-31856,2024-107R,2026-07-23T06:08:06.284256,15.34374687,.00014519,53.1609,154.3263,91.7821,268.3348,0,U,59960,999,12057,-.30454088E-4,-.1404E-4,0
STARLINK-31993,2024-107S,2026-07-23T03:21:41.603040,15.34399114,.00015052,53.1592,155.0210,88.3148,271.8027,0,U,59961,999,12049,.10441018E-3,.3153E-4,0
STARLINK-31980,2024-107T,2026-07-23T06:11:05.874432,15.34390929,.00014117,53.1608,154.3305,113.3652,246.7499,0,U,59962,999,12057,.9210947E-5,-.65E-6,0
STARLINK-31991,2024-107U,2026-07-23T06:47:27.228192,15.34396499,.00013639,53.1610,154.4914,94.7330,265.3828,0,U,59963,999,12057,.2277276E-4,.393E-5,0
STARLINK-31979,2024-107V,2026-07-23T03:12:35.817696,15.34391124,.00014304,53.1589,154.9794,92.6947,267.4219,0,U,59964,999,12050,.117342E-4,.2E-6,0
PREFIRE-1,2024-108A,2026-07-23T06:00:29.924640,15.24000249,.00127605,97.5350,359.2072,113.0881,247.1702,0,U,59965,999,11808,.2013754E-3,.4814E-4,0
