STARLINK-31432          
1 59932U 24106L   26204.31553949 -.00027864  00000+0 -10081-2 0  9994
2 59932  42.9986 286.6969 0002065 294.4500  65.6136 15.27537785121259
STARLINK-31853          
1 59933U 24106M   26204.24244483 -.00000709  00000+0 -16245-4 0  9996
2 59933  43.0005 287.0123 0001453 275.6702  84.3984 15.27574668121256
STARLINK-31971          
1 59934U 24106N   26204.27246352 -.00001776  00000+0 -55069-4 0  9999
2 59934  43.0005 283.6281 0001139 284.5765  75.4960 15.27564946121177
STARLINK-31962          
1 59936U 24106Q   26204.26429157 -.00001430  00000+0 -42475-4 0  9990
2 59936  43.0015 287.1716 0001252 280.2463  79.8247 15.27567142121252
STARLINK-31879          
1 59937U 24106R   26204.27457195 -.00001434  00000+0 -42615-4 0  9995
2 59937  43.0013 287.2489 0001090 278.6236  81.4493 15.27566915121303
STARLINK-31876          
1 59938U 24106S   26203.58085420 -.00000436  00000+0 -63083-5 0  9991
2 59938  43.0012 290.6473 0002086 275.3859  84.6754 15.27600272121169
STARLINK-31955          
1 59939U 24106T   26204.21417368 -.00000891  00000+0 -22874-4 0  9990
2 59939  43.0004 286.7902 0000812 285.1463  74.9299 15.27575525121291
STARLINK-31946          
1 59940U 24106U   26204.27071242 -.00001220  00000+0 -34834-4 0  9991
2 59940  42.9999 287.2180 0000844 269.3884  90.6871 15.27574979111881
STARLINK-31948          
1 59941U 24106V   26204.26475787 -.00001123  00000+0 -31313-4 0  9994
2 59941  43.0019 283.6120 0000975 270.3419  89.7320 15.27569897121299
STARLINK-31900          
1 59942U 24106W   26204.21674009 -.00020883  00000+0 -74927-3 0  9999
2 59942  43.0014 286.8160 0001632 244.3735 115.6948 15.27675084121254
STARLINK-31973          
1 59943U 24106X   26203.92965448 -.00002829  00000+0 -93350-4 0  9999
2 59943  43.0014 288.9664 0001359 270.5688  89.5008 15.27563075121208
STARLINK-31966          
1 59944U 24106Y   26204.25271668  .00000829  00000+0  39632-4 0  9990
2 59944  42.9956 287.0839 0000875 269.2807  90.7944 15.27576277121308
STARLINK-11145 [DTC]    
1 59945U 24107A   26203.99925182 -.00001010  00000+0 -34905-5 0  9993
2 59945  53.1622 304.5478 0000428   5.2146 354.8876 15.69704293123391
STARLINK-11113 [DTC]    
1 59947U 24107C   26204.00405737 -.00000881  00000+0 -24191-5 0  9998
2 59947  53.1593 303.8328 0000997  79.0432 281.0699 15.69702335123405
STARLINK-11123 [DTC]    
1 59948U 24107D   26204.30778228  .00000105  00000+0  57195-5 0  9997
2 59948  53.1610 302.9138 0000963  93.0536 267.0592 15.69716517123503
STARLINK-11138 [DTC]    
1 59949U 24107E   26204.28816937  .00000177  00000+0  63185-5 0  9990
2 59949  53.1598 302.7791 0001068  66.5342 293.5788 15.69694220123506
STARLINK-11130 [DTC]    
1 59950U 24107F   26203.98455204 -.00001720  00000+0 -93111-5 0  9993
2 59950  53.1551 304.4470 0003694  75.3142 284.8285 15.69695787123394
STARLINK-11124 [DTC]    
1 59952U 24107H   26204.29307231 -.00000700  00000+0 -92483-6 0  9995
2 59952  53.1595 302.8137 0000651  82.0226 278.0866 15.69705028123518
STARLINK-11133 [DTC]    
1 59954U 24107K   26204.27835865 -.00001301  00000+0 -58834-5 0  9993
2 59954  53.1574 302.7161 0001190  74.4768 285.6381 15.69702066123445
STARLINK-11144 [DTC]    
1 59955U 24107L   26203.63676305 -.00002521  00000+0 -15967-4 0  9999
2 59955  53.1584 305.8279 0001009  83.6890 276.4243 15.69693760123409
STARLINK-11134 [DTC]    
1 59956U 24107M   26204.26854431  .00000118  00000+0  58196-5 0  9998
2 59956  53.1609 302.6496 0000125  81.6365 278.4668 15.69698172123378
STARLINK-11142 [DTC]    
1 59957U 24107N   26204.00895719 -.00001393  00000+0 -66564-5 0  9991
2 59957  53.1600 303.8753 0000381   5.6009 354.5013 15.69704777123418
STARLINK-31995          
1 59958U 24107P   26204.28505852  .00000225  00000+0  17805-4 0  9992
2 59958  53.1604 154.5047 0001390 108.5068 251.6086 15.34393742119374
STARLINK-31989          
1 59959U 24107Q   26204.26191697 -.00000340  00000+0  10835-5 0  9995
2 59959  53.1593 154.3634 0001445  85.4000 274.7168 15.34399869120579
STARLINK-31856          
1 59960U 24107R   26204.25562829 -.00001404  00000+0 -30454-4 0  9996
2 59960  53.1609 154.3263 0001451  91.7821 268.3348 15.34374687120575
STARLINK-31993          
1 59961U 24107S   26204.14006485  .00003153  00000+0  10441-3 0  9990
2 59961  53.1592 155.0210 0001505  88.3148 271.8027 15.34399114120497
STARLINK-31980          
1 59962U 24107T   26204.25770688 -.00000065  00000+0  92109-5 0  9999
2 59962  53.1608 154.3305 0001411 113.3652 246.7499 15.34390929120576
STARLINK-31991          
1 59963U 24107U   26204.28295403  .00000393  00000+0  22773-4 0  9992
2 59963  53.1610 154.4914 0001363  94.7330 265.3828 15.34396499120579
STARLINK-31979          
1 59964U 24107V   26204.13374789  .00000020  00000+0  11734-4 0  9994
2 59964  53.1589 154.9794 0001430  92.6947 267.4219 15.34391124120502
PREFIRE-1               
1 59965U 24108A   26204.25034635  .00004814  00000+0  20138-3 0  9994
2 59965  97.5350 359.2072 0012760 113.0881 247.1702 15.24000249118089
